ATLAS CENTAUR R/B       
1 06155U 72065B   26070.04483362  .00001491  00000+0  20625-3 0  9994
2 06155  35.0014 297.8129 0033358  20.3494 339.8529 14.77690945841468
SL-8 R/B                
1 08459U 75112B   26070.31162512  .00000304  00000+0  10845-3 0  9995
2 08459  74.0631  15.9282 0014404 108.5443 251.7277 14.38204786632100
SL-3 R/B                
1 10114U 77057B   26070.27287682  .00015555  00000+0  32541-3 0  9998
2 10114  97.5778 242.2630 0006169 278.4573  81.5976 15.45543996668578
SEASAT 1                
1 10967U 78064A   26070.08707647  .00000300  00000+0  12230-3 0  9995
2 10967 108.0107 128.4322 0002337 285.4324  74.6563 14.46161590506714
SL-14 R/B               
1 11267U 79011B   26070.05602367  .00000662  00000+0  62770-4 0  9998
2 11267  82.5207  95.2741 0017343  56.3397 303.9473 14.91909869528989
SL-8 R/B                
1 11574U 79089B   26070.20205369  .00000313  00000+0  10259-3 0  9999
2 11574  74.0667  88.2436 0017140 260.7173  99.2045 14.42351751436320
SL-14 R/B               
1 11672U 80005B   26070.13705941  .00000624  00000+0  60568-4 0  9995
2 11672  82.5142 305.8635 0016305 153.6741 206.5310 14.90932181476702
SL-8 R/B                
1 12139U 81003B   26070.06036492  .00021046  00000+0  53858-3 0  9997
2 12139  82.9385 288.7557 0262132 173.8818 186.5729 15.11032519314887
SL-3 R/B                
1 12465U 81046B   26070.27694687  .00014172  00000+0  32897-3 0  9997
2 12465  81.2299 287.8380 0019394  16.9108 343.2776 15.42041828438673
SL-3 R/B                
1 12904U 81103B   26070.28500188  .00006743  00000+0  29892-3 0  9998
2 12904  81.1584 211.5603 0012346 281.3642  78.6202 15.21398311973474
SL-3 R/B                
1 13068U 82013B   26070.29240560  .00004985  00000+0  21550-3 0  9996
2 13068  81.1760 158.8926 0022687 172.1687 187.9904 15.22036737404595
SL-3 R/B                
1 13154U 82039B   26070.24709043  .00003230  00000+0  19494-3 0  9997
2 13154  81.1580 214.1661 0029676 319.4175  40.4837 15.10092290381872
