CCSDS_OMM_VERS = 2.0
CREATION_DATE  = 
ORIGINATOR     = 

OBJECT_NAME    = ATLAS CENTAUR R/B
OBJECT_ID      = 1972-065B
CENTER_NAME    = EARTH
REF_FRAME      = TEME
TIME_SYSTEM    = UTC
MEAN_ELEMENT_THEORY = SGP/SGP4

EPOCH          = 2026-03-11T01:04:33.624768
MEAN_MOTION    = 14.77690945
ECCENTRICITY   = .00333582
INCLINATION    = 35.0014
RA_OF_ASC_NODE = 297.8129
ARG_OF_PERICENTER = 20.3494
MEAN_ANOMALY   = 339.8529

EPHEMERIS_TYPE = 0
CLASSIFICATION_TYPE = U
NORAD_CAT_ID   = 6155
ELEMENT_SET_NO = 999
REV_AT_EPOCH   = 84146
BSTAR          = .20624522E-3
MEAN_MOTION_DOT = .1491E-4
MEAN_MOTION_DDOT = 0

CCSDS_OMM_VERS = 2.0
CREATION_DATE  = 
ORIGINATOR     = 

OBJECT_NAME    = SL-8 R/B
OBJECT_ID      = 1975-112B
CENTER_NAME    = EARTH
REF_FRAME      = TEME
TIME_SYSTEM    = UTC
MEAN_ELEMENT_THEORY = SGP/SGP4

EPOCH          = 2026-03-11T07:28:44.410368
MEAN_MOTION    = 14.38204786
ECCENTRICITY   = .00144048
INCLINATION    = 74.0631
RA_OF_ASC_NODE = 15.9282
ARG_OF_PERICENTER = 108.5443
MEAN_ANOMALY   = 251.7277

EPHEMERIS_TYPE = 0
CLASSIFICATION_TYPE = U
NORAD_CAT_ID   = 8459
ELEMENT_SET_NO = 999
REV_AT_EPOCH   = 63210
BSTAR          = .10844801E-3
MEAN_MOTION_DOT = .304E-5
MEAN_MOTION_DDOT = 0

CCSDS_OMM_VERS = 2.0
CREATION_DATE  = 
ORIGINATOR     = 

OBJECT_NAME    = SL-3 R/B
OBJECT_ID      = 1977-057B
CENTER_NAME    = EARTH
REF_FRAME      = TEME
TIME_SYSTEM    = UTC
MEAN_ELEMENT_THEORY = SGP/SGP4

EPOCH          = 2026-03-11T06:32:56.557248
MEAN_MOTION    = 15.45543996
ECCENTRICITY   = .00061696
INCLINATION    = 97.5778
RA_OF_ASC_NODE = 242.2630
ARG_OF_PERICENTER = 278.4573
MEAN_ANOMALY   = 81.5976

EPHEMERIS_TYPE = 0
CLASSIFICATION_TYPE = U
NORAD_CAT_ID   = 10114
ELEMENT_SET_NO = 999
REV_AT_EPOCH   = 66857
BSTAR          = .32541129E-3
MEAN_MOTION_DOT = .15555E-3
MEAN_MOTION_DDOT = 0

CCSDS_OMM_VERS = 2.0
CREATION_DATE  = 
ORIGINATOR     = 

OBJECT_NAME    = SEASAT 1
OBJECT_ID      = 1978-064A
CENTER_NAME    = EARTH
REF_FRAME      = TEME
TIME_SYSTEM    = UTC
MEAN_ELEMENT_THEORY = SGP/SGP4

EPOCH          = 2026-03-11T02:05:23.407008
MEAN_MOTION    = 14.46161590
ECCENTRICITY   = .00023373
INCLINATION    = 108.0107
RA_OF_ASC_NODE = 128.4322
ARG_OF_PERICENTER = 285.4324
MEAN_ANOMALY   = 74.6563

EPHEMERIS_TYPE = 0
CLASSIFICATION_TYPE = U
NORAD_CAT_ID   = 10967
ELEMENT_SET_NO = 999
REV_AT_EPOCH   = 50671
BSTAR          = .12230173E-3
MEAN_MOTION_DOT = .3E-5
MEAN_MOTION_DDOT = 0

CCSDS_OMM_VERS = 2.0
CREATION_DATE  = 
ORIGINATOR     = 

OBJECT_NAME    = SL-14 R/B
OBJECT_ID      = 1979-011B
CENTER_NAME    = EARTH
REF_FRAME      = TEME
TIME_SYSTEM    = UTC
MEAN_ELEMENT_THEORY = SGP/SGP4

EPOCH          = 2026-03-11T01:20:40.445088
MEAN_MOTION    = 14.91909869
ECCENTRICITY   = .00173433
INCLINATION    = 82.5207
RA_OF_ASC_NODE = 95.2741
ARG_OF_PERICENTER = 56.3397
MEAN_ANOMALY   = 303.9473

EPHEMERIS_TYPE = 0
CLASSIFICATION_TYPE = U
NORAD_CAT_ID   = 11267
ELEMENT_SET_NO = 999
REV_AT_EPOCH   = 52898
BSTAR          = .62770376E-4
MEAN_MOTION_DOT = .662E-5
MEAN_MOTION_DDOT = 0

CCSDS_OMM_VERS = 2.0
CREATION_DATE  = 
ORIGINATOR     = 

OBJECT_NAME    = SL-8 R/B
OBJECT_ID      = 1979-089B
CENTER_NAME    = EARTH
REF_FRAME      = TEME
TIME_SYSTEM    = UTC
MEAN_ELEMENT_THEORY = SGP/SGP4

EPOCH          = 2026-03-11T04:50:57.438816
MEAN_MOTION    = 14.42351751
ECCENTRICITY   = .00171409
INCLINATION    = 74.0667
RA_OF_ASC_NODE = 88.2436
ARG_OF_PERICENTER = 260.7173
MEAN_ANOMALY   = 99.2045

EPHEMERIS_TYPE = 0
CLASSIFICATION_TYPE = U
NORAD_CAT_ID   = 11574
ELEMENT_SET_NO = 999
REV_AT_EPOCH   = 43632
BSTAR          = .10259078E-3
MEAN_MOTION_DOT = .313E-5
MEAN_MOTION_DDOT = 0

CCSDS_OMM_VERS = 2.0
CREATION_DATE  = 
ORIGINATOR     = 

OBJECT_NAME    = SL-14 R/B
OBJECT_ID      = 1980-005B
CENTER_NAME    = EARTH
REF_FRAME      = TEME
TIME_SYSTEM    = UTC
MEAN_ELEMENT_THEORY = SGP/SGP4

EPOCH          = 2026-03-11T03:17:21.933024
MEAN_MOTION    = 14.90932181
ECCENTRICITY   = .00163058
INCLINATION    = 82.5142
RA_OF_ASC_NODE = 305.8635
ARG_OF_PERICENTER = 153.6741
MEAN_ANOMALY   = 206.5310

EPHEMERIS_TYPE = 0
CLASSIFICATION_TYPE = U
NORAD_CAT_ID   = 11672
ELEMENT_SET_NO = 999
REV_AT_EPOCH   = 47670
BSTAR          = .6056779E-4
MEAN_MOTION_DOT = .624E-5
MEAN_MOTION_DDOT = 0

CCSDS_OMM_VERS = 2.0
CREATION_DATE  = 
ORIGINATOR     = 

OBJECT_NAME    = SL-8 R/B
OBJECT_ID      = 1981-003B
CENTER_NAME    = EARTH
REF_FRAME      = TEME
TIME_SYSTEM    = UTC
MEAN_ELEMENT_THEORY = SGP/SGP4

EPOCH          = 2026-03-11T01:26:55.529088
MEAN_MOTION    = 15.11032519
ECCENTRICITY   = .0262132
INCLINATION    = 82.9385
RA_OF_ASC_NODE = 288.7557
ARG_OF_PERICENTER = 173.8818
MEAN_ANOMALY   = 186.5729

EPHEMERIS_TYPE = 0
CLASSIFICATION_TYPE = U
NORAD_CAT_ID   = 12139
ELEMENT_SET_NO = 999
REV_AT_EPOCH   = 31488
BSTAR          = .53858236E-3
MEAN_MOTION_DOT = .21046E-3
MEAN_MOTION_DDOT = 0

CCSDS_OMM_VERS = 2.0
CREATION_DATE  = 
ORIGINATOR     = 

OBJECT_NAME    = SL-3 R/B
OBJECT_ID      = 1981-046B
CENTER_NAME    = EARTH
REF_FRAME      = TEME
TIME_SYSTEM    = UTC
MEAN_ELEMENT_THEORY = SGP/SGP4

EPOCH          = 2026-03-11T06:38:48.209568
MEAN_MOTION    = 15.42041828
ECCENTRICITY   = .00193946
INCLINATION    = 81.2299
RA_OF_ASC_NODE = 287.8380
ARG_OF_PERICENTER = 16.9108
MEAN_ANOMALY   = 343.2776

EPHEMERIS_TYPE = 0
CLASSIFICATION_TYPE = U
NORAD_CAT_ID   = 12465
ELEMENT_SET_NO = 999
REV_AT_EPOCH   = 43867
BSTAR          = .32897441E-3
MEAN_MOTION_DOT = .14172E-3
MEAN_MOTION_DDOT = 0

CCSDS_OMM_VERS = 2.0
CREATION_DATE  = 
ORIGINATOR     = 

OBJECT_NAME    = SL-3 R/B
OBJECT_ID      = 1981-103B
CENTER_NAME    = EARTH
REF_FRAME      = TEME
TIME_SYSTEM    = UTC
MEAN_ELEMENT_THEORY = SGP/SGP4

EPOCH          = 2026-03-11T06:50:24.162432
MEAN_MOTION    = 15.21398311
ECCENTRICITY   = .00123469
INCLINATION    = 81.1584
RA_OF_ASC_NODE = 211.5603
ARG_OF_PERICENTER = 281.3642
MEAN_ANOMALY   = 78.6202

EPHEMERIS_TYPE = 0
CLASSIFICATION_TYPE = U
NORAD_CAT_ID   = 12904
ELEMENT_SET_NO = 999
REV_AT_EPOCH   = 97347
BSTAR          = .29891796E-3
MEAN_MOTION_DOT = .6743E-4
MEAN_MOTION_DDOT = 0

CCSDS_OMM_VERS = 2.0
CREATION_DATE  = 
ORIGINATOR     = 

OBJECT_NAME    = SL-3 R/B
OBJECT_ID      = 1982-013B
CENTER_NAME    = EARTH
REF_FRAME      = TEME
TIME_SYSTEM    = UTC
MEAN_ELEMENT_THEORY = SGP/SGP4

EPOCH          = 2026-03-11T07:01:03.843840
MEAN_MOTION    = 15.22036737
ECCENTRICITY   = .00226878
INCLINATION    = 81.1760
RA_OF_ASC_NODE = 158.8926
ARG_OF_PERICENTER = 172.1687
MEAN_ANOMALY   = 187.9904

EPHEMERIS_TYPE = 0
CLASSIFICATION_TYPE = U
NORAD_CAT_ID   = 13068
ELEMENT_SET_NO = 999
REV_AT_EPOCH   = 40459
BSTAR          = .21550046E-3
MEAN_MOTION_DOT = .4985E-4
MEAN_MOTION_DDOT = 0

CCSDS_OMM_VERS = 2.0
CREATION_DATE  = 
ORIGINATOR     = 

OBJECT_NAME    = SL-3 R/B
OBJECT_ID      = 1982-039B
CENTER_NAME    = EARTH
REF_FRAME      = TEME
TIME_SYSTEM    = UTC
MEAN_ELEMENT_THEORY = SGP/SGP4

EPOCH          = 2026-03-11T05:55:48.613152
MEAN_MOTION    = 15.10092290
ECCENTRICITY   = .0029676
INCLINATION    = 81.1580
RA_OF_ASC_NODE = 214.1661
ARG_OF_PERICENTER = 319.4175
MEAN_ANOMALY   = 40.4837

EPHEMERIS_TYPE = 0
CLASSIFICATION_TYPE = U
NORAD_CAT_ID   = 13154
ELEMENT_SET_NO = 999
REV_AT_EPOCH   = 38187
BSTAR          = .19493509E-3
MEAN_MOTION_DOT = .323E-4
MEAN_MOTION_DDOT = 0

